ONEWEB-0291             
1 49081U 21075G   26195.87999410  .00000004  00000+0 -22510-4 0  9995
2 49081  87.9145   0.3531 0002117  85.0581 275.0792 13.17646804237259
ONEWEB-0293             
1 49082U 21075H   26195.90528487  .00000011  00000+0 -54256-5 0  9993
2 49082  87.9145   0.3504 0002019  92.9344 267.2019 13.17650135237285
ONEWEB-0294             
1 49083U 21075J   26195.85210903  .00000171  00000+0  44000-3 0  9999
2 49083  87.8970 345.1590 0002188  97.3464 262.7913 13.12443903238209
ONEWEB-0295             
1 49084U 21075K   26195.90444803  .00000028  00000+0  39274-4 0  9993
2 49084  87.9144   0.3548 0001994  85.1847 274.9512 13.17649854237242
ONEWEB-0296             
1 49085U 21075L   26195.90800989 -.00000413  00000+0 -11820-2 0  9990
2 49085  87.8969 345.1560 0002045  87.7794 272.3569 13.12443135238219
ONEWEB-0297             
1 49086U 21075M   26195.86227489  .00000369  00000+0  98916-3 0  9994
2 49086  87.8958 345.1721 0001860  92.4306 267.7035 13.12442632238816
ONEWEB-0298             
1 49087U 21075N   26195.90882340  .00000025  00000+0  31048-4 0  9996
2 49087  87.9146   0.3522 0001738  90.1183 270.0148 13.17649253237272
ONEWEB-0299             
1 49088U 21075P   26195.91035481  .00000023  00000+0  24887-4 0  9995
2 49088  87.9156   0.3345 0001841  86.9606 273.1737 13.17648154237250
ONEWEB-0300             
1 49089U 21075Q   26195.85464985  .00000276  00000+0  73118-3 0  9994
2 49089  87.8971 345.1563 0001490  94.8469 265.2829 13.12443262238839
ONEWEB-0301             
1 49090U 21075R   26195.91478336 -.00000273  00000+0 -79385-3 0  9999
2 49090  87.8968 345.1421 0001541 100.2418 259.8884 13.12443767238204
ONEWEB-0302             
1 49091U 21075S   26195.90123567 -.00000464  00000+0 -13253-2 0  9995
2 49091  87.8967 345.1569 0002183  94.6716 265.4662 13.12441303238185
ONEWEB-0304             
1 49092U 21075T   26195.88504163  .00000043  00000+0  77837-4 0  9999
2 49092  87.9142   0.3597 0001926  86.9238 273.2114 13.17647192237222
ONEWEB-0305             
1 49093U 21075U   26195.87829250 -.00000005  00000+0 -46142-4 0  9991
2 49093  87.9152   0.3475 0001928  80.3265 279.8084 13.17647603237257
ONEWEB-0308             
1 49094U 21075V   26195.89445342 -.00000251  00000+0 -73363-3 0  9997
2 49094  87.8971 345.1505 0001838  96.2582 263.8756 13.12442037238190
ONEWEB-0309             
1 49095U 21075W   26195.88166200 -.00000049  00000+0 -15930-3 0  9991
2 49095  87.9144   0.3534 0002366  93.2617 266.8786 13.17649995237225
ONEWEB-0310             
1 49096U 21075X   26195.90969936 -.00000473  00000+0 -13500-2 0  9993
2 49096  87.8962 345.1666 0001868  96.2550 263.8792 13.12443837238827
